MEAN_MOTION;ECCENTRICITY;INCLINATION;RA_OF_ASC_NODE;ARG_OF_PERICENTER;MEAN_ANOMALY;BSTAR;MEAN_MOTION_DOT;MEAN_MOTION_DDOT;TYPE
14.33535464;0.0002406;45.0082;181.3438;81.0929;279.0189;4.5936E-5;-1.3E-7;0;Orbcomm
14.33535845;0.0002344;45.0081;176.4239;88.0187;272.0928;4.6176E-5;-1.2E-7;0;Orbcomm
14.33536354;0.000231;45.0082;172.1601;94.3223;265.7888;5.5096E-5;1.3E-7;0;Orbcomm
14.33536489;0.0002299;45.0082;170.5201;96.6781;263.4327;5.4794E-5;1.2E-7;0;Orbcomm
14.33536821;0.0002292;45.0082;167.8962;100.6783;259.4322;6.2105E-5;3.2E-7;0;Orbcomm
14.33537056;0.0002281;45.0082;164.9442;104.9675;255.1424;6.3617E-5;3.7E-7;0;Orbcomm
14.33537172;0.0002287;45.0082;163.6322;107.0675;253.0422;6.4574E-5;3.9E-7;0;Orbcomm
14.33537497;0.0002284;45.0082;159.0404;113.8304;246.2783;6.7468E-5;4.7E-7;0;Orbcomm
14.33537548;0.0002296;45.0082;158.3844;114.8603;245.2482;6.8255E-5;5.0E-7;0;Orbcomm
14.33537798;0.0002301;45.0081;153.7925;121.3641;238.7431;6.8144E-5;4.9E-7;0;Orbcomm
14.33538104;0.0002322;45.0082;149.5286;127.3496;232.7562;6.9585E-5;5.3E-7;0;Orbcomm
14.33538325;0.0002327;45.0082;146.5767;131.4771;228.6276;6.9697E-5;5.4E-7;0;Orbcomm
14.3353852;0.0002357;45.0081;143.9528;134.919;225.1848;6.6317E-5;4.4E-7;0;Orbcomm
14.33538727;0.0002369;45.0082;141.6568;138.1699;221.9329;6.7013E-5;4.6E-7;0;Orbcomm
14.33538943;0.0002377;45.0082;139.361;141.0628;219.039;6.7208E-5;4.7E-7;0;Orbcomm
14.33539109;0.0002403;45.0082;136.737;144.5925;215.5082;6.2565E-5;3.4E-7;0;Orbcomm
14.33539306;0.0002423;45.0082;133.4572;148.922;211.1771;5.7124E-5;1.9E-7;0;Orbcomm
14.3353932;0.0002456;45.0081;130.8332;152.3545;207.7433;4.4561E-5;-1.7E-7;0;Orbcomm
14.33539339;0.0002458;45.0081;130.5052;152.7488;207.3487;4.4566E-5;-1.6E-7;0;Orbcomm
14.33539589;0.0002517;45.0081;125.9132;158.6055;201.4897;4.324E-5;-2.0E-7;0;Orbcomm
14.33539693;0.0002536;45.0081;123.9452;161.1477;198.9464;4.3884E-5;-1.8E-7;0;Orbcomm
14.33539977;0.0002578;45.008;121.3212;164.1795;195.9132;5.3679E-5;9.0E-8;0;Orbcomm
14.3354012;0.0002597;45.008;119.3532;166.6103;193.4813;5.6473E-5;1.7E-7;0;Orbcomm
14.33540274;0.0002617;45.008;118.0411;168.08;192.0109;6.1595E-5;3.1E-7;0;Orbcomm
14.33540418;0.0002633;45.0079;116.7291;169.4469;190.6433;6.5897E-5;4.3E-7;0;Orbcomm
14.33540621;0.0002654;45.008;114.7611;171.8184;188.2706;7.1113E-5;5.8E-7;0;Orbcomm
14.33540902;0.0002687;45.0079;112.1371;174.6645;185.423;7.7217E-5;7.5E-7;0;Orbcomm
14.33540934;0.0002692;45.0079;111.8091;175.0201;185.0673;7.7367E-5;7.5E-7;0;Orbcomm
14.33541328;0.0002754;45.008;107.2171;180;180.0847;7.8247E-5;7.8E-7;0;Orbcomm
14.33541636;0.0002817;45.0081;102.6251;184.8584;175.2236;7.1657E-5;5.9E-7;0;Orbcomm
14.33541901;0.0002868;45.0082;99.345;188.3115;171.7685;6.819E-5;4.9E-7;0;Orbcomm
14.33541994;0.0002883;45.0082;97.7051;189.8925;170.1865;6.5846E-5;4.3E-7;0;Orbcomm
14.33542295;0.0002939;45.0083;93.4412;194.148;165.9284;6.2126E-5;3.3E-7;0;Orbcomm
14.33542488;0.0002987;45.0084;90.1611;197.3798;162.6947;5.845E-5;2.2E-7;0;Orbcomm
14.33542663;0.0003023;45.0085;86.5533;200.9293;159.143;5.5962E-5;1.5E-7;0;Orbcomm
14.33542737;0.0003048;45.0085;85.2413;202.0596;158.012;5.4635E-5;1.2E-7;0;Orbcomm
14.33542792;0.0003053;45.0085;84.2574;202.9432;157.1278;5.5051E-5;1.3E-7;0;Orbcomm
14.33542889;0.0003065;45.0086;81.6334;205.4605;154.6091;5.3151E-5;8.0E-8;0;Orbcomm
14.33542949;0.0003093;45.0086;79.3375;207.4437;152.6246;4.9072E-5;-4.0E-8;0;Orbcomm
14.33543039;0.0003116;45.0087;77.0415;209.6153;150.4518;4.7722E-5;-8.0E-8;0;Orbcomm
14.33543227;0.0003162;45.0088;72.4495;213.6183;146.4463;4.3103E-5;-2.1E-7;0;Orbcomm
14.33543218;0.0003158;45.0088;72.1215;213.8485;146.216;4.1589E-5;-2.5E-7;0;Orbcomm
14.33543509;0.000321;45.0089;67.5296;217.8204;142.2417;4.2237E-5;-2.3E-7;0;Orbcomm
14.33543583;0.0003226;45.009;66.2176;218.8312;141.2303;4.1503E-5;-2.5E-7;0;Orbcomm
14.33543776;0.0003259;45.0091;62.9377;221.6854;138.3745;4.0806E-5;-2.7E-7;0;Orbcomm
14.33543914;0.0003258;45.0092;60.6418;223.4969;136.5621;4.0662E-5;-2.7E-7;0;Orbcomm
14.33544062;0.0003282;45.0093;58.3458;225.4358;134.6221;4.1973E-5;-2.4E-7;0;Orbcomm
14.33544361;0.0003312;45.0095;53.426;229.4938;130.562;4.3978E-5;-1.8E-7;0;Orbcomm
14.33544528;0.0003316;45.0095;52.1141;230.5314;129.524;4.9554E-5;-3.0E-8;0;Orbcomm
14.33544797;0.000333;45.0096;49.1622;232.9438;127.1105;5.5073E-5;1.3E-7;0;Orbcomm
14.33545007;0.0003334;45.0097;47.1943;234.2235;125.8302;6.0463E-5;2.8E-7;0;Orbcomm
14.33545286;0.0003368;45.0098;43.9144;236.9478;123.1045;6.3018E-5;3.5E-7;0;Orbcomm
14.33545417;0.0003379;45.0098;42.2746;238.2754;121.7763;6.3435E-5;3.6E-7;0;Orbcomm
14.33545631;0.0003396;45.0099;39.3227;240.5909;119.4598;6.3051E-5;3.5E-7;0;Orbcomm
14.33545788;0.0003397;45.0099;37.6828;241.872;118.1783;6.4931E-5;4.0E-7;0;Orbcomm
14.33546305;0.0003411;45.01;30.1391;247.4182;112.6304;5.8784E-5;2.3E-7;0;Orbcomm
14.33546595;0.0003433;45.0101;25.2193;251.1665;108.8809;5.332E-5;8.0E-8;0;Orbcomm
14.33546692;0.000343;45.0101;23.5794;252.5133;107.5339;5.253E-5;6.0E-8;0;Orbcomm
14.33547021;0.0003436;45.0102;18.9877;256.1218;103.9246;5.3085E-5;7.0E-8;0;Orbcomm
14.33547217;0.0003451;45.0102;16.0357;258.309;101.7369;5.3363E-5;8.0E-8;0;Orbcomm
14.33547502;0.0003443;45.0102;11.4439;261.6308;98.4148;5.4978E-5;1.3E-7;0;Orbcomm
14.33547521;0.0003441;45.0102;11.116;261.8907;98.155;5.5161E-5;1.3E-7;0;Orbcomm
14.33547791;0.0003412;45.0102;6.5243;265.1947;94.851;5.6431E-5;1.7E-7;0;Orbcomm
14.33547888;0.0003403;45.0102;5.2124;266.1901;93.8556;5.8322E-5;2.2E-7;0;Orbcomm
14.33548069;0.00034;45.0101;2.2605;268.2358;91.8099;5.8372E-5;2.2E-7;0;Orbcomm
14.335482;0.0003375;45.0101;358.6529;270.8553;89.1907;5.3727E-5;9.0E-8;0;Orbcomm
14.33548232;0.0003375;45.0101;357.6689;271.531;88.515;5.0899E-5;1.0E-8;0;Orbcomm
14.33548315;0.000336;45.0101;356.3571;272.493;87.5532;5.0951E-5;1.0E-8;0;Orbcomm
14.33548493;0.0003346;45.01;353.0772;274.8286;85.2178;4.7994E-5;-7.0E-8;0;Orbcomm
14.33548558;0.0003331;45.01;351.4373;275.9797;84.067;4.6188E-5;-1.2E-7;0;Orbcomm
14.33548745;0.0003313;45.0099;348.1574;278.2589;81.7882;4.4239E-5;-1.7E-7;0;Orbcomm
14.33548797;0.00033;45.0099;346.5176;279.4878;80.5595;4.2403E-5;-2.2E-7;0;Orbcomm
14.33548949;0.0003274;45.0098;342.9097;281.8621;78.1859;4.0497E-5;-2.8E-7;0;Orbcomm
14.33549128;0.0003239;45.0097;338.3179;285.1643;74.8846;4.0009E-5;-2.9E-7;0;Orbcomm
14.33549212;0.00032;45.0096;333.7259;288.2905;71.7593;3.6688E-5;-3.8E-7;0;Orbcomm
14.33549232;0.0003193;45.0095;332.742;289.084;70.966;3.6652E-5;-3.9E-7;0;Orbcomm
14.33549331;0.0003155;45.0095;329.134;291.4641;68.5869;3.6337E-5;-3.9E-7;0;Orbcomm
14.3354942;0.0003133;45.0095;326.1821;293.7368;66.315;3.6206E-5;-4.0E-7;0;Orbcomm
14.33549451;0.000312;45.0094;325.198;294.4381;65.614;3.5268E-5;-4.2E-7;0;Orbcomm
14.33549609;0.0003082;45.0093;321.2621;297.1478;62.9054;3.5585E-5;-4.2E-7;0;Orbcomm
14.3354971;0.0003051;45.0093;319.2942;298.4953;61.5586;3.5414E-5;-4.2E-7;0;Orbcomm
14.33549846;0.0003024;45.0093;316.0142;301.029;59.0259;3.3123E-5;-4.8E-7;0;Orbcomm
14.33549846;0.0003024;45.0093;316.0142;301.029;59.0259;3.3123E-5;-4.8E-7;0;Orbcomm
14.33550072;0.0002974;45.0092;311.7504;304.0372;56.0192;3.2883E-5;-4.9E-7;0;Orbcomm
14.33550151;0.0002956;45.0092;310.1105;305.537;54.5201;3.2731E-5;-4.9E-7;0;Orbcomm
14.33550346;0.0002912;45.0091;306.8305;307.4889;52.5693;3.3293E-5;-4.8E-7;0;Orbcomm
14.3355042;0.0002893;45.0091;305.1906;308.8767;51.1821;3.4055E-5;-4.6E-7;0;Orbcomm
14.33550441;0.0002886;45.0091;304.8626;309.0225;51.0364;3.3912E-5;-4.6E-7;0;Orbcomm
14.33550535;0.0002821;45.0089;300.5986;311.9159;48.1447;3.0947E-5;-5.4E-7;0;Orbcomm
14.33550611;0.0002789;45.0089;297.9745;313.6878;46.3737;3.0914E-5;-5.5E-7;0;Orbcomm
14.33550596;0.0002754;45.0088;296.0066;315.1503;44.912;2.8908E-5;-6.0E-7;0;Orbcomm
14.33550663;0.0002715;45.0088;293.0545;317.1708;42.8927;2.9003E-5;-6.0E-7;0;Orbcomm
14.33550675;0.0002684;45.0087;291.4146;318.4622;41.6021;2.8532E-5;-6.1E-7;0;Orbcomm
14.33550805;0.000262;45.0087;286.8227;321.879;38.1871;2.8431E-5;-6.2E-7;0;Orbcomm
14.33550943;0.000256;45.0087;282.8866;324.6284;35.4393;2.8091E-5;-6.2E-7;0;Orbcomm
14.3355098;0.0002546;45.0087;281.9027;325.5023;34.5658;2.8498E-5;-6.1E-7;0;Orbcomm
14.33551179;0.0002472;45.0087;277.3107;328.6622;31.4077;2.9179E-5;-5.9E-7;0;Orbcomm
14.33551191;0.0002468;45.0087;276.9827;328.9477;31.1224;2.8828E-5;-6.0E-7;0;Orbcomm
14.33551307;0.0002418;45.0087;274.0306;331.1325;28.9388;2.7459E-5;-6.4E-7;0;Orbcomm
14.33551385;0.0002392;45.0087;272.3907;332.7137;27.3583;2.9053E-5;-6.0E-7;0;Orbcomm
14.33551501;0.000234;45.0088;269.4386;334.7577;25.3155;2.7643E-5;-6.4E-7;0;Orbcomm
14.3355155;0.0002334;45.0088;269.1107;334.9061;25.1672;2.9226E-5;-5.9E-7;0;Orbcomm
14.33551628;0.000232;45.0088;268.1268;335.9368;24.137;3.0865E-5;-5.5E-7;0;Orbcomm
14.33551971;0.0002237;45.0087;263.2069;339.7115;20.3643;3.64E-5;-3.9E-7;0;Orbcomm
14.33552302;0.0002155;45.0087;258.615;343.4838;16.5938;4.3926E-5;-1.8E-7;0;Orbcomm
14.33552497;0.0002102;45.0086;255.663;345.7361;14.3426;4.6309E-5;-1.2E-7;0;Orbcomm
14.33552559;0.0002076;45.0085;254.0232;347.406;12.6734;4.5511E-5;-1.4E-7;0;Orbcomm
14.33552825;0.0001999;45.0085;249.7593;351.0016;9.0795;4.7293E-5;-9.0E-8;0;Orbcomm
14.33552841;0.0001994;45.0084;249.4313;351.276;8.8052;4.6865E-5;-1.0E-7;0;Orbcomm
14.33553148;0.0001903;45.0083;244.5114;355.5801;4.5028;4.6513E-5;-1.1E-7;0;Orbcomm
14.33553371;0.0001814;45.0083;239.9194;359.7095;0.375;4.3633E-5;-1.9E-7;0;Orbcomm
14.33553554;0.0001756;45.0082;236.9674;2.2315;357.8539;4.3555E-5;-1.9E-7;0;Orbcomm
14.33553682;0.0001725;45.0082;235.3275;3.7773;356.3086;4.5781E-5;-1.3E-7;0;Orbcomm
14.33553926;0.0001664;45.0082;232.0475;6.5431;353.5437;4.8141E-5;-6.0E-8;0;Orbcomm
14.33553958;0.000166;45.0082;231.7196;6.8883;353.1987;4.9217E-5;-3.0E-8;0;Orbcomm
14.33554069;0.0001644;45.0082;230.7356;8.0957;351.9916;5.1815E-5;4.0E-8;0;Orbcomm
14.33554345;0.0001559;45.0081;226.1437;12.7582;347.3304;5.2683E-5;6.0E-8;0;Orbcomm
14.33554544;0.0001488;45.0081;222.2078;17.0607;343.0289;5.2063E-5;4.0E-8;0;Orbcomm
14.3355459;0.0001479;45.0081;221.5519;17.8482;342.2416;5.2415E-5;5.0E-8;0;Orbcomm
